STARLINK-5427           
1 54853U 22177AK  25259.52457192  .00000751  00000+0  70698-4 0  9998
2 54853  43.0087 346.9211 0001703 270.1743  89.8904 15.02536641150906
STARLINK-5416           
1 54855U 22177AM  25259.51791161  .00000815  00000+0  75390-4 0  9991
2 54855  43.0051 346.8692 0001224 268.5737  91.4965 15.02535650150908
STARLINK-5086           
1 54856U 22177AN  25259.29850826  .00003248  00000+0  25538-3 0  9992
2 54856  43.0045 347.8039 0001587 280.8743  79.1921 15.02536608150879
STARLINK-5078           
1 54857U 22177AP  25259.50903250  .00000264  00000+0  34603-4 0  9996
2 54857  43.0062 346.8094 0001180 271.4661  88.6046 15.02538223150905
STARLINK-5407           
1 54858U 22177AQ  25259.51125636 -.00000137  00000+0  49224-5 0  9998
2 54858  43.0045 346.8158 0000940 269.4736  90.5999 15.02531121150900
STARLINK-5409           
1 54859U 22177AR  25259.30182624  .00000884  00000+0  80483-4 0  9995
2 54859  43.0040 347.8267 0001268 278.3969  81.6729 15.02537342150878
STARLINK-5406           
1 54860U 22177AS  25259.29627866  .00000656  00000+0  63625-4 0  9993
2 54860  43.0049 347.7834 0001040 270.4118  89.6605 15.02543619150870
STARLINK-5400           
1 54861U 22177AT  25259.51236513 -.00001539  00000+0 -98872-4 0  9999
2 54861  43.0054 346.8285 0001035 278.4188  81.6537 15.02531260150905
STARLINK-5403           
1 54862U 22177AU  25259.53567433 -.00000213  00000+0 -67781-6 0  9995
2 54862  43.0044 347.0157 0001086 267.3413  92.7305 15.02533032150905
STARLINK-5405           
1 54863U 22177AV  25258.30799523  .00000023  00000+0  16781-4 0  9996
2 54863  43.0042 353.2699 0001080 268.1797  91.8922 15.02530304150726
STARLINK-5359           
1 54864U 22177AW  25259.29295517 -.00000177  00000+0  19945-5 0  9997
2 54864  43.0051 347.7588 0001184 274.3450  85.7257 15.02529623150873
STARLINK-5411           
1 54865U 22177AX  25259.50792921 -.00000712  00000+0 -37644-4 0  9994
2 54865  43.0065 346.7931 0001681 268.5399  91.5251 15.02527753150904
STARLINK-5398           
1 54866U 22177AY  25259.54888012 -.00000445  00000+0 -17861-4 0  9998
2 54866  43.0045 346.2384 0001112 265.3883  94.6832 15.02528850150911
STARLINK-5396           
1 54867U 22177AZ  25259.29516792  .00001362  00000+0  11590-3 0  9993
2 54867  43.0043 347.7758 0001036 265.6028  94.4696 15.02539177150875
STARLINK-5379           
1 54868U 22177BA  25259.54443828 -.00000174  00000+0  21918-5 0  9999
2 54868  43.0057 346.2050 0001605 270.2792  89.7866 15.02529335150918
STARLINK-5402           
1 54869U 22177BB  25259.55443344 -.00001062  00000+0 -63606-4 0  9991
2 54869  43.0022 346.2808 0000947 250.1695 109.9045 15.02528836150918
