[{"OBJECT_NAME":"STARLINK-5427","OBJECT_ID":"2022-177AK","EPOCH":"2025-09-16T12:35:23.013888","MEAN_MOTION":15.02536641,"ECCENTRICITY":0.00017034,"INCLINATION":43.0087,"RA_OF_ASC_NODE":346.9211,"ARG_OF_PERICENTER":270.1743,"MEAN_ANOMALY":89.8904,"EPHEMERIS_TYPE":0,"CLASSIFICATION_TYPE":"U","NORAD_CAT_ID":54853,"ELEMENT_SET_NO":999,"REV_AT_EPOCH":15090,"BSTAR":7.0697868e-5,"MEAN_MOTION_DOT":7.51e-6,"MEAN_MOTION_DDOT":0},{"OBJECT_NAME":"STARLINK-5416","OBJECT_ID":"2022-177AM","EPOCH":"2025-09-16T12:25:47.563104","MEAN_MOTION":15.0253565,"ECCENTRICITY":0.00012241,"INCLINATION":43.0051,"RA_OF_ASC_NODE":346.8692,"ARG_OF_PERICENTER":268.5737,"MEAN_ANOMALY":91.4965,"EPHEMERIS_TYPE":0,"CLASSIFICATION_TYPE":"U","NORAD_CAT_ID":54855,"ELEMENT_SET_NO":999,"REV_AT_EPOCH":15090,"BSTAR":7.5389832e-5,"MEAN_MOTION_DOT":8.15e-6,"MEAN_MOTION_DDOT":0},{"OBJECT_NAME":"STARLINK-5086","OBJECT_ID":"2022-177AN","EPOCH":"2025-09-16T07:09:51.113664","MEAN_MOTION":15.02536608,"ECCENTRICITY":0.00015871,"INCLINATION":43.0045,"RA_OF_ASC_NODE":347.8039,"ARG_OF_PERICENTER":280.8743,"MEAN_ANOMALY":79.1921,"EPHEMERIS_TYPE":0,"CLASSIFICATION_TYPE":"U","NORAD_CAT_ID":54856,"ELEMENT_SET_NO":999,"REV_AT_EPOCH":15087,"BSTAR":0.00025537517,"MEAN_MOTION_DOT":3.248e-5,"MEAN_MOTION_DDOT":0},{"OBJECT_NAME":"STARLINK-5078","OBJECT_ID":"2022-177AP","EPOCH":"2025-09-16T12:13:00.408000","MEAN_MOTION":15.02538223,"ECCENTRICITY":0.00011803,"INCLINATION":43.0062,"RA_OF_ASC_NODE":346.8094,"ARG_OF_PERICENTER":271.4661,"MEAN_ANOMALY":88.6046,"EPHEMERIS_TYPE":0,"CLASSIFICATION_TYPE":"U","NORAD_CAT_ID":54857,"ELEMENT_SET_NO":999,"REV_AT_EPOCH":15090,"BSTAR":3.4602899e-5,"MEAN_MOTION_DOT":2.64e-6,"MEAN_MOTION_DDOT":0},{"OBJECT_NAME":"STARLINK-5407","OBJECT_ID":"2022-177AQ","EPOCH":"2025-09-16T12:16:12.549504","MEAN_MOTION":15.02531121,"ECCENTRICITY":9.405e-5,"INCLINATION":43.0045,"RA_OF_ASC_NODE":346.8158,"ARG_OF_PERICENTER":269.4736,"MEAN_ANOMALY":90.5999,"EPHEMERIS_TYPE":0,"CLASSIFICATION_TYPE":"U","NORAD_CAT_ID":54858,"ELEMENT_SET_NO":999,"REV_AT_EPOCH":15090,"BSTAR":4.92242e-6,"MEAN_MOTION_DOT":-1.37e-6,"MEAN_MOTION_DDOT":0},{"OBJECT_NAME":"STARLINK-5409","OBJECT_ID":"2022-177AR","EPOCH":"2025-09-16T07:14:37.787136","MEAN_MOTION":15.02537342,"ECCENTRICITY":0.00012683,"INCLINATION":43.004,"RA_OF_ASC_NODE":347.8267,"ARG_OF_PERICENTER":278.3969,"MEAN_ANOMALY":81.6729,"EPHEMERIS_TYPE":0,"CLASSIFICATION_TYPE":"U","NORAD_CAT_ID":54859,"ELEMENT_SET_NO":999,"REV_AT_EPOCH":15087,"BSTAR":8.0482794e-5,"MEAN_MOTION_DOT":8.84e-6,"MEAN_MOTION_DDOT":0},{"OBJECT_NAME":"STARLINK-5406","OBJECT_ID":"2022-177AS","EPOCH":"2025-09-16T07:06:38.476224","MEAN_MOTION":15.02543619,"ECCENTRICITY":0.00010405,"INCLINATION":43.0049,"RA_OF_ASC_NODE":347.7834,"ARG_OF_PERICENTER":270.4118,"MEAN_ANOMALY":89.6605,"EPHEMERIS_TYPE":0,"CLASSIFICATION_TYPE":"U","NORAD_CAT_ID":54860,"ELEMENT_SET_NO":999,"REV_AT_EPOCH":15087,"BSTAR":6.3625264e-5,"MEAN_MOTION_DOT":6.56e-6,"MEAN_MOTION_DDOT":0},{"OBJECT_NAME":"STARLINK-5400","OBJECT_ID":"2022-177AT","EPOCH":"2025-09-16T12:17:48.347232","MEAN_MOTION":15.0253126,"ECCENTRICITY":0.00010355,"INCLINATION":43.0054,"RA_OF_ASC_NODE":346.8285,"ARG_OF_PERICENTER":278.4188,"MEAN_ANOMALY":81.6537,"EPHEMERIS_TYPE":0,"CLASSIFICATION_TYPE":"U","NORAD_CAT_ID":54861,"ELEMENT_SET_NO":999,"REV_AT_EPOCH":15090,"BSTAR":-9.8871918e-5,"MEAN_MOTION_DOT":-1.539e-5,"MEAN_MOTION_DDOT":0},{"OBJECT_NAME":"STARLINK-5403","OBJECT_ID":"2022-177AU","EPOCH":"2025-09-16T12:51:22.262112","MEAN_MOTION":15.02533032,"ECCENTRICITY":0.00010864,"INCLINATION":43.0044,"RA_OF_ASC_NODE":347.0157,"ARG_OF_PERICENTER":267.3413,"MEAN_ANOMALY":92.7305,"EPHEMERIS_TYPE":0,"CLASSIFICATION_TYPE":"U","NORAD_CAT_ID":54862,"ELEMENT_SET_NO":999,"REV_AT_EPOCH":15090,"BSTAR":-6.7781e-7,"MEAN_MOTION_DOT":-2.13e-6,"MEAN_MOTION_DDOT":0},{"OBJECT_NAME":"STARLINK-5405","OBJECT_ID":"2022-177AV","EPOCH":"2025-09-15T07:23:30.787872","MEAN_MOTION":15.02530304,"ECCENTRICITY":0.00010808,"INCLINATION":43.0042,"RA_OF_ASC_NODE":353.2699,"ARG_OF_PERICENTER":268.1797,"MEAN_ANOMALY":91.8922,"EPHEMERIS_TYPE":0,"CLASSIFICATION_TYPE":"U","NORAD_CAT_ID":54863,"ELEMENT_SET_NO":999,"REV_AT_EPOCH":15072,"BSTAR":1.6781334e-5,"MEAN_MOTION_DOT":2.3e-7,"MEAN_MOTION_DDOT":0},{"OBJECT_NAME":"STARLINK-5359","OBJECT_ID":"2022-177AW","EPOCH":"2025-09-16T07:01:51.326688","MEAN_MOTION":15.02529623,"ECCENTRICITY":0.00011845,"INCLINATION":43.0051,"RA_OF_ASC_NODE":347.7588,"ARG_OF_PERICENTER":274.345,"MEAN_ANOMALY":85.7257,"EPHEMERIS_TYPE":0,"CLASSIFICATION_TYPE":"U","NORAD_CAT_ID":54864,"ELEMENT_SET_NO":999,"REV_AT_EPOCH":15087,"BSTAR":1.99454e-6,"MEAN_MOTION_DOT":-1.77e-6,"MEAN_MOTION_DDOT":0},{"OBJECT_NAME":"STARLINK-5411","OBJECT_ID":"2022-177AX","EPOCH":"2025-09-16T12:11:25.083744","MEAN_MOTION":15.02527753,"ECCENTRICITY":0.0001681,"INCLINATION":43.0065,"RA_OF_ASC_NODE":346.7931,"ARG_OF_PERICENTER":268.5399,"MEAN_ANOMALY":91.5251,"EPHEMERIS_TYPE":0,"CLASSIFICATION_TYPE":"U","NORAD_CAT_ID":54865,"ELEMENT_SET_NO":999,"REV_AT_EPOCH":15090,"BSTAR":-3.7644136e-5,"MEAN_MOTION_DOT":-7.12e-6,"MEAN_MOTION_DDOT":0},{"OBJECT_NAME":"STARLINK-5398","OBJECT_ID":"2022-177AY","EPOCH":"2025-09-16T13:10:23.242368","MEAN_MOTION":15.0252885,"ECCENTRICITY":0.0001112,"INCLINATION":43.0045,"RA_OF_ASC_NODE":346.2384,"ARG_OF_PERICENTER":265.3883,"MEAN_ANOMALY":94.6832,"EPHEMERIS_TYPE":0,"CLASSIFICATION_TYPE":"U","NORAD_CAT_ID":54866,"ELEMENT_SET_NO":999,"REV_AT_EPOCH":15091,"BSTAR":-1.7861264e-5,"MEAN_MOTION_DOT":-4.45e-6,"MEAN_MOTION_DDOT":0},{"OBJECT_NAME":"STARLINK-5396","OBJECT_ID":"2022-177AZ","EPOCH":"2025-09-16T07:05:02.508288","MEAN_MOTION":15.02539177,"ECCENTRICITY":0.00010361,"INCLINATION":43.0043,"RA_OF_ASC_NODE":347.7758,"ARG_OF_PERICENTER":265.6028,"MEAN_ANOMALY":94.4696,"EPHEMERIS_TYPE":0,"CLASSIFICATION_TYPE":"U","NORAD_CAT_ID":54867,"ELEMENT_SET_NO":999,"REV_AT_EPOCH":15087,"BSTAR":0.0001158995,"MEAN_MOTION_DOT":1.362e-5,"MEAN_MOTION_DDOT":0},{"OBJECT_NAME":"STARLINK-5379","OBJECT_ID":"2022-177BA","EPOCH":"2025-09-16T13:03:59.467392","MEAN_MOTION":15.02529335,"ECCENTRICITY":0.0001605,"INCLINATION":43.0057,"RA_OF_ASC_NODE":346.205,"ARG_OF_PERICENTER":270.2792,"MEAN_ANOMALY":89.7866,"EPHEMERIS_TYPE":0,"CLASSIFICATION_TYPE":"U","NORAD_CAT_ID":54868,"ELEMENT_SET_NO":999,"REV_AT_EPOCH":15091,"BSTAR":2.191761e-6,"MEAN_MOTION_DOT":-1.74e-6,"MEAN_MOTION_DDOT":0},{"OBJECT_NAME":"STARLINK-5402","OBJECT_ID":"2022-177BB","EPOCH":"2025-09-16T13:18:23.049216","MEAN_MOTION":15.02528836,"ECCENTRICITY":9.476e-5,"INCLINATION":43.0022,"RA_OF_ASC_NODE":346.2808,"ARG_OF_PERICENTER":250.1695,"MEAN_ANOMALY":109.9045,"EPHEMERIS_TYPE":0,"CLASSIFICATION_TYPE":"U","NORAD_CAT_ID":54869,"ELEMENT_SET_NO":999,"REV_AT_EPOCH":15091,"BSTAR":-6.3605762e-5,"MEAN_MOTION_DOT":-1.062e-5,"MEAN_MOTION_DDOT":0}]
